150955Z 23016KT 2700 DZ BR SCT004 BKN006 BKN008 11/11 Q1025 TEMPO BKN004
22011KT 1400 -DZ BR FEW002 BKN003 OVC006 10/10 Q1025 REDZ AMB
22009KT 3000 R25/2900D -DZ BR OVC007 11/10 Q1026 YLO YLO TEMPO AMB
150955Z 21013KT 4000 BR SCT006 BKN007 OVC008 11/10 Q1026 TEMPO BKN 004
21011KT 1500 R24/1700D -DZ BR BKN003 OVC006 11/10 Q1025 AMB YLO TEMPO AMB
150955Z 24015KT 2100 -RADZ FEW001 OVC002 11/11 Q1023 TEMPO 1500 BKN003
150955Z 21010KT 9999 OVC039 10/09 Q1027 NOSIG
150955Z 22012KT 190V250 1500 DZRA SCT004 BKN005 BKN008 11/10 Q1025 NOSIG
22011KT 1900 R27/1900N -DZRA BR BKN003 OVC005 11/10 Q1025 YLO YLO TEMPO AMB
121025Z 15005KT 6000 FEW200 00/M03 Q1029 NOSIG 06////95
12002KT 9000 BR BKN034 00/M04 Q1029 BLU
09003KT 4000 BR FEW015 M03/M03 Q1029 GRN GRN BECMG WHT
121055Z VRB01KT 5000 BR BKN035 01/01 Q1029 TEMPO 4000
11006KT 9999 BKN030 M00/M05 Q1030 BLU BLU
121025Z VRB02KT 5000 BR SKC M01/M01 Q1030 NOSIG
121025Z VRB01KT 2900 BR SCT035 BKN110 M03/M03 Q1029 BECMG 4000 040///95
121025Z 17005KT 140V200 6000 FEW200 00/M05 Q1029 NOSIG
0900Z 15014KT CAVOK 29/06 Q1010 RMK RF00.0/000.0 NOSIG
16013KT CAVOK 35/11 Q1006 RMK FEW100 BKN120 RF00.0/000.0
0900Z 14012KT 9999 VCSH FEW014 SCT020 BKN050 27/21 Q1001 RMK RF00.0/000.2 INTER 0900/1200 3000 SHRA BK010 OVC100
0900Z 01005KT 9999 -RA FEW020 BKN100 BKN130 21/19 Q1011 RMK RF00.2/013.2 INTER 0900/1200 6000 +SHRA BKN010
